[{"OBJECT_NAME":"STARLINK-4426","OBJECT_ID":"2022-099V","EPOCH":"2026-03-09T20:59:05.066016","MEAN_MOTION":15.05654177,"ECCENTRICITY":5.881e-5,"INCLINATION":97.6033,"RA_OF_ASC_NODE":191.3741,"ARG_OF_PERICENTER":182.7659,"MEAN_ANOMALY":177.3565,"EPHEMERIS_TYPE":0,"CLASSIFICATION_TYPE":"U","NORAD_CAT_ID":53484,"ELEMENT_SET_NO":999,"REV_AT_EPOCH":19607,"BSTAR":0.00015015842,"MEAN_MOTION_DOT":2.107e-5,"MEAN_MOTION_DDOT":0},{"OBJECT_NAME":"COSMOS 2251 DEB","OBJECT_ID":"1993-036ZW","EPOCH":"2026-03-09T08:08:26.165472","MEAN_MOTION":15.02749495,"ECCENTRICITY":0.00499096,"INCLINATION":74.0135,"RA_OF_ASC_NODE":183.9715,"ARG_OF_PERICENTER":290.3808,"MEAN_ANOMALY":69.2023,"EPHEMERIS_TYPE":0,"CLASSIFICATION_TYPE":"U","NORAD_CAT_ID":34752,"ELEMENT_SET_NO":999,"REV_AT_EPOCH":91149,"BSTAR":0.001245658,"MEAN_MOTION_DOT":0.00017109,"MEAN_MOTION_DDOT":0}]
